SatCatId,ObjectName,LaunchYear,OrbitalPeriod,LaunchMass,StatusCode,Inclination,Status,UcsData,OrbitClassEstimated,LaunchSiteCountry,Owner,UseType,Purpose,LaunchVehicleClass,TLE1,TLE2,MeanMotion,Eccentricity,OrbitClass
46584,STARLINK-1732,2020,95.59,260.0,+,53.05,Active,1,LEO,USA,USA,Commercial,Communications,Falcon,1 46584U 20070BE  23276.48850830  .00020398  00000+0  13845-2 0  9996,2 46584  53.0530 183.9088 0001814 111.0651 249.0532 15.06395360165916,15.0639536,0.0001814,LEO
46585,STARLINK-1736,2020,95.59,260.0,+,53.05,Active,1,LEO,USA,USA,Commercial,Communications,Falcon,1 46585U 20070BF  23276.43965415  .00036751  00000+0  24731-2 0  9994,2 46585  53.0538 184.1196 0001524  68.1040 292.0111 15.06402592165906,15.06402592,0.0001524,LEO
46586,STARLINK-1737,2020,95.59,260.0,+,53.05,Active,1,LEO,USA,USA,Commercial,Communications,Falcon,1 46586U 20070BG  23276.16414226  .00024359  00000+0  16491-2 0  9999,2 46586  53.0532 185.3661 0001414 102.6413 257.4734 15.06387458165861,15.06387458,0.0001414,LEO
46588,STARLINK-1746,2020,95.59,260.0,+,53.05,Active,1,LEO,USA,USA,Commercial,Communications,Falcon,1 46588U 20070BJ  23276.47745660  .00041501  00000+0  27879-2 0  9994,2 46588  53.0527 183.9600 0001343  93.5057 266.6086 15.06410228165917,15.06410228,0.0001343,LEO
46589,STARLINK-1749,2020,95.59,260.0,+,53.05,Active,1,LEO,USA,USA,Commercial,Communications,Falcon,1 46589U 20070BK  23276.47008237  .00015136  00000+0  10328-2 0  9993,2 46589  53.0529 183.9919 0001404  91.5947 268.5202 15.06400823165907,15.06400823,0.0001404,LEO
46591,STARLINK-1755,2020,95.59,260.0,+,53.05,Active,1,LEO,USA,USA,Commercial,Communications,Falcon,1 46591U 20070BM  23276.12727948  .00023564  00000+0  15966-2 0  9992,2 46591  53.0538 185.5311 0001464  76.2888 283.8264 15.06375295164916,15.06375295,0.0001464,LEO
46597,FLOCK 4V-18,2020,93.11,4.0,+,97.35,Active,1,LEO,French Guiana,USA,Commercial,Earth Observation,ION,1 46597U 20061BG  23276.49156355  .00049925  00000+0  99739-3 0  9996,2 46597  97.3471 350.7903 0003080 229.5480 130.5501 15.46657398166228,15.46657398,0.000308,LEO
46609,FLOCK 4V-19,2020,93.14,4.0,+,97.33,Active,1,LEO,French Guiana,USA,Commercial,Earth Observation,ION,1 46609U 20061BH  23276.46414868  .00046236  00000+0  94109-3 0  9991,2 46609  97.3333 349.3480 0001020 190.7535 169.3693 15.46133607165789,15.46133607,0.000102,LEO
46610,GAOFEN-13 01,2020,1436.09,1000.0,+,0.07,Active,1,GSO,PRC,China,Government,Earth Observation,Long March,1 46610U 20071A   23276.55254272 -.00000372  00000+0  00000+0 0  9990,2 46610   0.0663 303.4668 0013402  66.4545 319.0475  1.00272294 11013,1.00272294,0.0013402,GEO
46612,FLOCK 4V-20,2020,93.96,-1.0,+,97.35,Active,0,LEO,French Guiana,USA,Unknown,Unknown,Vega,1 46612U 20061BJ  23276.44708428  .00016645  00000+0  52985-3 0  9998,2 46612  97.3502 346.6794 0003212 242.9407 117.1507 15.32645139165027,15.32645139,0.0003212,LEO
46671,STARLINK-1715,2020,95.59,260.0,+,53.05,Active,1,LEO,USA,USA,Commercial,Communications,Falcon,1 46671U 20073B   23276.28856642  .00021599  00000+0  14649-2 0  9998,2 46671  53.0537 275.0481 0001383  99.1523 260.9623 15.06388955163154,15.06388955,0.0001383,LEO
46672,STARLINK-1716,2020,95.59,260.0,+,53.05,Active,1,LEO,USA,USA,Commercial,Communications,Falcon,1 46672U 20073C   23276.30558582 -.00001113  00000+0 -55853-4 0  9990,2 46672  53.0528 269.7298 0001563  87.1707 272.9461 15.06396617163238,15.06396617,0.0001563,LEO
46673,STARLINK-1717,2020,95.59,260.0,+,53.05,Active,1,LEO,USA,USA,Commercial,Communications,Falcon,1 46673U 20073D   23276.28762849  .00017784  00000+0  12104-2 0  9990,2 46673  53.0527 284.9361 0001408  93.5381 266.5769 15.06380359163017,15.06380359,0.0001408,LEO
46674,STARLINK-1718,2020,95.59,260.0,+,53.05,Active,1,LEO,USA,USA,Commercial,Communications,Falcon,1 46674U 20073E   23276.26503769  .00021992  00000+0  14914-2 0  9990,2 46674  53.0531 269.9131 0001191  92.3280 267.7845 15.06381662163224,15.06381662,0.0001191,LEO
46675,STARLINK-1720,2020,95.59,260.0,+,53.05,Active,1,LEO,USA,USA,Commercial,Communications,Falcon,1 46675U 20073F   23276.39404699  .00000664  00000+0  63458-4 0  9999,2 46675  53.0542 269.3323 0001476  93.4738 266.6420 15.06395441163249,15.06395441,0.0001476,LEO
46677,STARLINK-1766,2020,95.59,260.0,+,53.05,Active,1,LEO,USA,USA,Commercial,Communications,Falcon,1 46677U 20073H   23276.39036297  .00000022  00000+0  20376-4 0  9996,2 46677  53.0527 269.3492 0001408  93.2035 266.9115 15.06397951163246,15.06397951,0.0001408,LEO
46679,STARLINK-1773,2020,95.59,260.0,+,53.05,Active,1,LEO,USA,USA,Commercial,Communications,Falcon,1 46679U 20073K   23276.32954248  .00025981  00000+0  17576-2 0  9993,2 46679  53.0534 249.6221 0001379  98.1926 261.9219 15.06380888163518,15.06380888,0.0001379,LEO
46680,STARLINK-1774,2020,95.59,260.0,+,53.05,Active,1,LEO,USA,USA,Commercial,Communications,Falcon,1 46680U 20073L   23276.26549299  .00017591  00000+0  11973-2 0  9997,2 46680  53.0520 284.9088 0001093  56.3258 303.7835 15.06386714163013,15.06386714,0.0001093,LEO
46681,STARLINK-1775,2020,95.59,260.0,+,53.05,Active,1,LEO,USA,USA,Commercial,Communications,Falcon,1 46681U 20073M   23276.30235727  .00020396  00000+0  13850-2 0  9994,2 46681  53.0535 284.7439 0001129  91.2010 268.9108 15.06377343163015,15.06377343,0.0001129,LEO
46682,STARLINK-1776,2020,95.59,260.0,+,53.05,Active,1,LEO,USA,USA,Commercial,Communications,Falcon,1 46682U 20073N   23276.39449590  .00021037  00000+0  14270-2 0  9999,2 46682  53.0534 284.3321 0001285  97.1744 262.9391 15.06399446163031,15.06399446,0.0001285,LEO
46684,STARLINK-1780,2020,95.59,260.0,+,53.05,Active,1,LEO,USA,USA,Commercial,Communications,Falcon,1 46684U 20073Q   23276.38301386  .00005921  00000+0  41616-3 0  9999,2 46684  53.0540 269.3818 0001814  91.7636 268.3560 15.06392773163249,15.06392773,0.0001814,LEO
46685,STARLINK-1781,2020,95.59,260.0,+,53.05,Active,1,LEO,USA,USA,Commercial,Communications,Falcon,1 46685U 20073R   23276.50413679  .00014566  00000+0  99523-3 0  9998,2 46685  53.0549 283.8262 0001504  94.9154 265.2007 15.06382537163529,15.06382537,0.0001504,LEO
46686,STARLINK-1783,2020,95.59,260.0,+,53.05,Active,1,LEO,USA,USA,Commercial,Communications,Falcon,1 46686U 20073S   23276.34932926  .00021133  00000+0  14342-2 0  9995,2 46686  53.0531 284.4863 0001560  88.0822 272.0346 15.06378098163027,15.06378098,0.000156,LEO
46687,STARLINK-1784,2020,95.59,260.0,+,53.05,Active,1,LEO,USA,USA,Commercial,Communications,Falcon,1 46687U 20073T   23276.40695523  .00021243  00000+0  14411-2 0  9991,2 46687  53.0535 249.2767 0001026  87.1366 272.9741 15.06390835163520,15.06390835,0.0001026,LEO
46689,STARLINK-1788,2020,95.59,260.0,+,53.05,Active,1,LEO,USA,USA,Commercial,Communications,Falcon,1 46689U 20073V   23276.43136309  .00020383  00000+0  13839-2 0  9995,2 46689  53.0530 284.1646 0001326  91.6954 268.4187 15.06383744164286,15.06383744,0.0001326,LEO
46690,STARLINK-1789,2020,95.59,260.0,+,53.05,Active,1,LEO,USA,USA,Commercial,Communications,Falcon,1 46690U 20073W   23276.36548020  .00000955  00000+0  83009-4 0  9997,2 46690  53.0538 259.4626 0001409  91.2337 268.8813 15.06396860163374,15.0639686,0.0001409,LEO
46691,STARLINK-1790,2020,95.59,260.0,+,53.05,Active,1,LEO,USA,USA,Commercial,Communications,Falcon,1 46691U 20073X   23276.49725887  .00024834  00000+0  16806-2 0  9991,2 46691  53.0533 268.8699 0001501  94.9985 265.1176 15.06391698163732,15.06391698,0.0001501,LEO
46692,STARLINK-1791,2020,95.59,260.0,+,53.05,Active,1,LEO,USA,USA,Commercial,Communications,Falcon,1 46692U 20073Y   23276.35026823 -.00003203  00000+0 -19629-3 0  9997,2 46692  53.0518 284.5300 0001403  86.1743 273.9407 15.06386526163026,15.06386526,0.0001403,LEO
46693,STARLINK-1792,2020,95.59,260.0,+,53.05,Active,1,LEO,USA,USA,Commercial,Communications,Falcon,1 46693U 20073Z   23276.50093534 -.00000267  00000+0  96969-6 0  9999,2 46693  53.0534 268.8523 0001361  88.7171 271.3974 15.06398120163252,15.0639812,0.0001361,LEO
46694,STARLINK-1793,2020,95.59,260.0,+,53.05,Active,1,LEO,USA,USA,Commercial,Communications,Falcon,1 46694U 20073AA  23276.32586284  .00026946  00000+0  18216-2 0  9995,2 46694  53.0534 249.6385 0001371 108.4368 251.6770 15.06387778163516,15.06387778,0.0001371,LEO
46696,STARLINK-1795,2020,95.59,260.0,+,53.05,Active,1,LEO,USA,USA,Commercial,Communications,Falcon,1 46696U 20073AC  23276.41063550  .00000931  00000+0  81355-4 0  9995,2 46696  53.0533 249.2600 0001471  93.9207 266.1950 15.06401822163523,15.06401822,0.0001471,LEO
46698,STARLINK-1797,2020,95.59,260.0,+,53.05,Active,1,LEO,USA,USA,Commercial,Communications,Falcon,1 46698U 20073AE  23276.26777513  .00019874  00000+0  13494-2 0  9994,2 46698  53.0525 269.8912 0001789 112.6213 247.4965 15.06397389163225,15.06397389,0.0001789,LEO
46699,STARLINK-1799,2020,95.59,260.0,+,53.05,Active,1,LEO,USA,USA,Commercial,Communications,Falcon,1 46699U 20073AF  23276.47145452  .00023608  00000+0  15991-2 0  9993,2 46699  53.0531 268.9874 0001185  87.3935 272.7189 15.06386287163256,15.06386287,0.0001185,LEO
46700,STARLINK-1800,2020,95.59,260.0,+,53.05,Active,1,LEO,USA,USA,Commercial,Communications,Falcon,1 46700U 20073AG  23276.54194626  .00023921  00000+0  16205-2 0  9998,2 46700  53.0527 283.6691 0001235  86.2632 273.8498 15.06374216163055,15.06374216,0.0001235,LEO
46701,STARLINK-1801,2020,95.59,260.0,+,53.05,Active,1,LEO,USA,USA,Commercial,Communications,Falcon,1 46701U 20073AH  23276.30927064  .00021564  00000+0  14631-2 0  9995,2 46701  53.0528 269.7139 0001319  84.0242 276.0898 15.06376174163239,15.06376174,0.0001319,LEO
46702,STARLINK-1802,2020,95.59,260.0,+,53.05,Active,1,LEO,USA,USA,Commercial,Communications,Falcon,1 46702U 20073AJ  23276.45487076  .00029971  00000+0  20230-2 0  9998,2 46702  53.0534 249.0599 0001472  94.2156 265.9001 15.06388790163538,15.0638879,0.0001472,LEO
